{"epoch":1784799577,"count":18318,"objects":[{"id":"38041","name":"GLOBALSTAR M080","type":"PAYLOAD","l1":"1 38041U 11080B   26203.89948921 -.00000095  00000-0  47951-4 0  9994","l2":"2 38041  52.0054 270.2953 0000299  64.0996 119.5345 12.62257646673393"},{"id":"38042","name":"GLOBALSTAR M082","type":"PAYLOAD","l1":"1 38042U 11080C   26203.25855456 -.00000093  00000-0  60693-4 0  9991","l2":"2 38042  52.0051 227.7492 0000213  49.6438  30.1960 12.62264365674020"},{"id":"38043","name":"GLOBALSTAR M092","type":"PAYLOAD","l1":"1 38043U 11080D   26203.80558531 -.00000087  00000-0  91413-4 0  9994","l2":"2 38043  52.0104 316.4828 0000707 112.8753  53.4140 12.62268010672544"},{"id":"38044","name":"GLOBALSTAR M090","type":"PAYLOAD","l1":"1 38044U 11080E   26203.78275194 -.00000088  00000-0  86946-4 0  9999","l2":"2 38044  52.0097 220.1205 0000389  78.0793 103.8667 12.62269656674205"},{"id":"38045","name":"GLOBALSTAR M086","type":"PAYLOAD","l1":"1 38045U 11080F   26203.48328235 -.00000092  00000-0  64873-4 0  9992","l2":"2 38045  51.9868 220.9029 0001397 121.9821  42.6812 12.62287851674111"},{"id":"39072","name":"GLOBALSTAR M097","type":"PAYLOAD","l1":"1 39072U 13005A   26203.55813747 -.00000115  00000-0 -61012-4 0  9996","l2":"2 39072  52.0041 135.6627 0000582  47.8826 312.2090 12.62271291621374"},{"id":"39073","name":"GLOBALSTAR M093","type":"PAYLOAD","l1":"1 39073U 13005B   26203.53140246 -.00000096  00000-0  42617-4 0  9999","l2":"2 39073  52.0101 129.1050 0000812  54.3817 305.7125 12.62266443621323"},{"id":"39074","name":"GLOBALSTAR M094","type":"PAYLOAD","l1":"1 39074U 13005C   26203.29371225 -.00000106  00000-0 -14110-4 0  9996","l2":"2 39074  51.9970  43.9101 0001046  74.6470 285.4512 12.62264268622908"},{"id":"39075","name":"GLOBALSTAR M096","type":"PAYLOAD","l1":"1 39075U 13005D   26203.94070740 -.00000100  00000-0  22972-4 0  9995","l2":"2 39075  52.0077  90.7705 0000868  55.8955 304.1994 12.62265940621909"},{"id":"39076","name":"GLOBALSTAR M078","type":"PAYLOAD","l1":"1 39076U 13005E   26203.28038619 -.00000090  00000-0  74678-4 0  9990","l2":"2 39076  51.9850 176.7415 0001009 358.0095   2.0767 12.62260123620449"},{"id":"39077","name":"GLOBALSTAR M095","type":"PAYLOAD","l1":"1 39077U 13005F   26203.94052443 -.00000098  00000-0  33585-4 0  9995","l2":"2 39077  52.0058 172.3851 0000640  25.8093 334.2805 12.62264064620389"},{"id":"52888","name":"GLOBALSTAR M087","type":"PAYLOAD","l1":"1 52888U 22064A   26203.71605011 -.00000089  00000-0  79987-4 0  9991","l2":"2 52888  52.0014 314.2882 0000860  94.4900 265.6065 12.62269507195626"}]}